{"type": "FeatureCollection", "features": [ {"type": "Feature", "properties": {"norad_id": 54234, "name": "NOAA 21 (JPSS-2)", "group": "weather", "lat": 23.74550584428591, "lon": -71.98699464303122, "alt_km": 825.0438277660342, "timestamp": "2025-12-21T16:47:54.372009+00:00", "meta": {"OBJECT_NAME": "NOAA 21 (JPSS-2)", "OBJECT_ID": "2022-150A", "EPOCH": "2025-12-21T11:36:38.158272", "MEAN_MOTION": 14.19526399, "ECCENTRICITY": 0.0001832, "INCLINATION": 98.7474, "RA_OF_ASC_NODE": 291.6833, "ARG_OF_PERICENTER": 20.4242, "MEAN_ANOMALY": 339.7007, "EPHEMERIS_TYPE": 0, "CLASSIFICATION_TYPE": "U", "NORAD_CAT_ID": 54234, "ELEMENT_SET_NO": 999, "REV_AT_EPOCH": 16133, "BSTAR": 4.8338e-05, "MEAN_MOTION_DOT": 5.8e-07, "MEAN_MOTION_DDOT": 0}, "tle": {"line1": "1 54234U 22150A   25355.48377498  .00000058  00000+0  48338-4 0  9990", "line2": "2 54234  98.7474 291.6833 0001832  20.4242 339.7007 14.19526399161331"}}, "geometry": {"type": "Point", "coordinates": [-71.98699464303122, 23.74550584428591]}}, {"type": "Feature", "properties": {"norad_id": 54743, "name": "METEOSAT-12 (MTG-I1)", "group": "weather", "lat": -0.48254156758333033, "lon": -17.808754911073194, "alt_km": 35785.07492902669, "timestamp": "2025-12-21T16:47:54.372020+00:00", "meta": {"OBJECT_NAME": "METEOSAT-12 (MTG-I1)", "OBJECT_ID": "2022-170C", "EPOCH": "2025-12-21T08:03:36.398016", "MEAN_MOTION": 1.00270654, "ECCENTRICITY": 0.0001496, "INCLINATION": 0.6957, "RA_OF_ASC_NODE": 25.0288, "ARG_OF_PERICENTER": 239.5899, "MEAN_ANOMALY": 306.1292, "EPHEMERIS_TYPE": 0, "CLASSIFICATION_TYPE": "U", "NORAD_CAT_ID": 54743, "ELEMENT_SET_NO": 999, "REV_AT_EPOCH": 1119, "BSTAR": 0, "MEAN_MOTION_DOT": 1.5e-07, "MEAN_MOTION_DDOT": 0}, "tle": {"line1": "1 54743U 22170C   25355.33583794  .00000015  00000+0  00000+0 0  9991", "line2": "2 54743   0.6957  25.0288 0001496 239.5899 306.1292  1.00270654 11192"}}, "geometry": {"type": "Point", "coordinates": [-17.808754911073194, -0.48254156758333033]}}, {"type": "Feature", "properties": {"norad_id": 55973, "name": "TIANMU-1 03", "group": "weather", "lat": -80.01996578760813, "lon": -69.96700945661145, "alt_km": 451.83580288762005, "timestamp": "2025-12-21T16:47:54.372031+00:00", "meta": {"OBJECT_NAME": "TIANMU-1 03", "OBJECT_ID": "2023-039A", "EPOCH": "2025-12-21T12:32:32.112960", "MEAN_MOTION": 15.41160335, "ECCENTRICITY": 0.0003961, "INCLINATION": 97.5106, "RA_OF_ASC_NODE": 158.4207, "ARG_OF_PERICENTER": 35.9528, "MEAN_ANOMALY": 324.1984, "EPHEMERIS_TYPE": 0, "CLASSIFICATION_TYPE": "U", "NORAD_CAT_ID": 55973, "ELEMENT_SET_NO": 999, "REV_AT_EPOCH": 15341, "BSTAR": 0.00030263, "MEAN_MOTION_DOT": 0.00012465, "MEAN_MOTION_DDOT": 0}, "tle": {"line1": "1 55973U 23039A   25355.52259390  .00012465  00000+0  30263-3 0  9995", "line2": "2 55973  97.5106 158.4207 0003961  35.9528 324.1984 15.41160335153411"}}, "geometry": {"type": "Point", "coordinates": [-69.96700945661145, -80.01996578760813]}}, {"type": "Feature", "properties": {"norad_id": 55974, "name": "TIANMU-1 04", "group": "weather", "lat": 27.957575482306254, "lon": 153.77876998927636, "alt_km": 437.42788895183094, "timestamp": "2025-12-21T16:47:54.372041+00:00", "meta": {"OBJECT_NAME": "TIANMU-1 04", "OBJECT_ID": "2023-039B", "EPOCH": "2025-12-21T12:00:09.739008", "MEAN_MOTION": 15.41500735, "ECCENTRICITY": 0.00046, "INCLINATION": 97.5038, "RA_OF_ASC_NODE": 157.5852, "ARG_OF_PERICENTER": 29.764, "MEAN_ANOMALY": 330.3867, "EPHEMERIS_TYPE": 0, "CLASSIFICATION_TYPE": "U", "NORAD_CAT_ID": 55974, "ELEMENT_SET_NO": 999, "REV_AT_EPOCH": 15341, "BSTAR": 0.00029609, "MEAN_MOTION_DOT": 0.00012334, "MEAN_MOTION_DDOT": 0}, "tle": {"line1": "1 55974U 23039B   25355.50011272  .00012334  00000+0  29609-3 0  9996", "line2": "2 55974  97.5038 157.5852 0004600  29.7640 330.3867 15.41500735153410"}}, "geometry": {"type": "Point", "coordinates": [153.77876998927636, 27.957575482306254]}}, {"type": "Feature", "properties": {"norad_id": 55975, "name": "TIANMU-1 05", "group": "weather", "lat": 47.3016341500364, "lon": 150.0650092838887, "alt_km": 435.90694634558076, "timestamp": "2025-12-21T16:47:54.372052+00:00", "meta": {"OBJECT_NAME": "TIANMU-1 05", "OBJECT_ID": "2023-039C", "EPOCH": "2025-12-21T11:55:00.223104", "MEAN_MOTION": 15.41116537, "ECCENTRICITY": 0.000408, "INCLINATION": 97.5085, "RA_OF_ASC_NODE": 158.0742, "ARG_OF_PERICENTER": 54.6948, "MEAN_ANOMALY": 305.4679, "EPHEMERIS_TYPE": 0, "CLASSIFICATION_TYPE": "U", "NORAD_CAT_ID": 55975, "ELEMENT_SET_NO": 999, "REV_AT_EPOCH": 15339, "BSTAR": 0.00029207, "MEAN_MOTION_DOT": 0.00012009, "MEAN_MOTION_DDOT": 0}, "tle": {"line1": "1 55975U 23039C   25355.49653036  .00012009  00000+0  29207-3 0  9998", "line2": "2 55975  97.5085 158.0742 0004080  54.6948 305.4679 15.41116537153391"}}, "geometry": {"type": "Point", "coordinates": [150.0650092838887, 47.3016341500364]}}, {"type": "Feature", "properties": {"norad_id": 55976, "name": "TIANMU-1 06", "group": "weather", "lat": 17.6430301979433, "lon": 156.35122921022077, "alt_km": 439.49196305949226, "timestamp": "2025-12-21T16:47:54.372064+00:00", "meta": {"OBJECT_NAME": "TIANMU-1 06", "OBJECT_ID": "2023-039D", "EPOCH": "2025-12-21T12:02:52.281600", "MEAN_MOTION": 15.41552317, "ECCENTRICITY": 0.0004361, "INCLINATION": 97.5095, "RA_OF_ASC_NODE": 158.5522, "ARG_OF_PERICENTER": 48.749, "MEAN_ANOMALY": 311.4131, "EPHEMERIS_TYPE": 0, "CLASSIFICATION_TYPE": "U", "NORAD_CAT_ID": 55976, "ELEMENT_SET_NO": 999, "REV_AT_EPOCH": 15341, "BSTAR": 0.00029525, "MEAN_MOTION_DOT": 0.00012319, "MEAN_MOTION_DDOT": 0}, "tle": {"line1": "1 55976U 23039D   25355.50199400  .00012319  00000+0  29525-3 0  9998", "line2": "2 55976  97.5095 158.5522 0004361  48.7490 311.4131 15.41552317153415"}}, "geometry": {"type": "Point", "coordinates": [156.35122921022077, 17.6430301979433]}}, {"type": "Feature", "properties": {"norad_id": 56232, "name": "FENGYUN 3G", "group": "weather", "lat": -22.380522974931125, "lon": 21.432779201603235, "alt_km": 401.68525423678966, "timestamp": "2025-12-21T16:47:54.372074+00:00", "meta": {"OBJECT_NAME": "FENGYUN 3G", "OBJECT_ID": "2023-055A", "EPOCH": "2025-12-21T12:48:49.637376", "MEAN_MOTION": 15.54128232, "ECCENTRICITY": 0.0009332, "INCLINATION": 49.9916, "RA_OF_ASC_NODE": 182.0558, "ARG_OF_PERICENTER": 188.1671, "MEAN_ANOMALY": 171.9146, "EPHEMERIS_TYPE": 0, "CLASSIFICATION_TYPE": "U", "NORAD_CAT_ID": 56232, "ELEMENT_SET_NO": 999, "REV_AT_EPOCH": 15239, "BSTAR": 0.00039721, "MEAN_MOTION_DOT": 0.00025985, "MEAN_MOTION_DDOT": 0}, "tle": {"line1": "1 56232U 23055A   25355.53390784  .00025985  00000+0  39721-3 0  9995", "line2": "2 56232  49.9916 182.0558 0009332 188.1671 171.9146 15.54128232152398"}}, "geometry": {"type": "Point", "coordinates": [21.432779201603235, -22.380522974931125]}}, {"type": "Feature", "properties": {"norad_id": 57166, "name": "METEOR-M2 3", "group": "weather", "lat": 73.29128890685591, "lon": 18.66387768837943, "alt_km": 804.8878725717786, "timestamp": "2025-12-21T16:47:54.372085+00:00", "meta": {"OBJECT_NAME": "METEOR-M2 3", "OBJECT_ID": "2023-091A", "EPOCH": "2025-12-21T13:04:19.277184", "MEAN_MOTION": 14.24027065, "ECCENTRICITY": 0.0003426, "INCLINATION": 98.6365, "RA_OF_ASC_NODE": 48.9298, "ARG_OF_PERICENTER": 342.132, "MEAN_ANOMALY": 17.9738, "EPHEMERIS_TYPE": 0, "CLASSIFICATION_TYPE": "U", "NORAD_CAT_ID": 57166, "ELEMENT_SET_NO": 999, "REV_AT_EPOCH": 12923, "BSTAR": 2.1178e-05, "MEAN_MOTION_DOT": 5e-08, "MEAN_MOTION_DDOT": 0}, "tle": {"line1": "1 57166U 23091A   25355.54466756  .00000005  00000+0  21178-4 0  9990", "line2": "2 57166  98.6365  48.9298 0003426 342.1320  17.9738 14.24027065129237"}}, "geometry": {"type": "Point", "coordinates": [18.66387768837943, 73.29128890685591]}}, {"type": "Feature", "properties": {"norad_id": 57399, "name": "TIANMU-1 07", "group": "weather", "lat": 14.816609829865653, "lon": 43.41273643398702, "alt_km": 479.59716436963845, "timestamp": "2025-12-21T16:47:54.372095+00:00", "meta": {"OBJECT_NAME": "TIANMU-1 07", "OBJECT_ID": "2023-101A", "EPOCH": "2025-12-21T10:26:50.220672", "MEAN_MOTION": 15.28184869, "ECCENTRICITY": 0.0005253, "INCLINATION": 97.2863, "RA_OF_ASC_NODE": 45.0935, "ARG_OF_PERICENTER": 59.5221, "MEAN_ANOMALY": 300.6537, "EPHEMERIS_TYPE": 0, "CLASSIFICATION_TYPE": "U", "NORAD_CAT_ID": 57399, "ELEMENT_SET_NO": 999, "REV_AT_EPOCH": 13448, "BSTAR": 0.00021136, "MEAN_MOTION_DOT": 5.735e-05, "MEAN_MOTION_DDOT": 0}, "tle": {"line1": "1 57399U 23101A   25355.43530348  .00005735  00000+0  21136-3 0  9995", "line2": "2 57399  97.2863  45.0935 0005253  59.5221 300.6537 15.28184869134481"}}, "geometry": {"type": "Point", "coordinates": [43.41273643398702, 14.816609829865653]}}, {"type": "Feature", "properties": {"norad_id": 57400, "name": "TIANMU-1 08", "group": "weather", "lat": -16.3238351373512, "lon": -136.9984278785253, "alt_km": 489.88595776643797, "timestamp": "2025-12-21T16:47:54.372105+00:00", "meta": {"OBJECT_NAME": "TIANMU-1 08", "OBJECT_ID": "2023-101B", "EPOCH": "2025-12-21T11:13:40.374624", "MEAN_MOTION": 15.28167756, "ECCENTRICITY": 0.0007176, "INCLINATION": 97.2851, "RA_OF_ASC_NODE": 44.9218, "ARG_OF_PERICENTER": 59.303, "MEAN_ANOMALY": 300.8916, "EPHEMERIS_TYPE": 0, "CLASSIFICATION_TYPE": "U", "NORAD_CAT_ID": 57400, "ELEMENT_SET_NO": 999, "REV_AT_EPOCH": 13448, "BSTAR": 0.00020436, "MEAN_MOTION_DOT": 5.541e-05, "MEAN_MOTION_DDOT": 0}, "tle": {"line1": "1 57400U 23101B   25355.46782841  .00005541  00000+0  20436-3 0  9995", "line2": "2 57400  97.2851  44.9218 0007176  59.3030 300.8916 15.28167756134484"}}, "geometry": {"type": "Point", "coordinates": [-136.9984278785253, -16.3238351373512]}}]}